STARLINK-11089 [DTC]    
1 59426U 24065F   26027.77049883  .00001501  00000+0  17247-4 0  9997
2 59426  53.1579 295.8091 0001125  82.1445 277.9701 15.69711385105099
STARLINK-31757          
1 59427U 24065G   26027.49986612  .00009944  00000+0  34742-3 0  9994
2 59427  53.1581 112.9670 0001109  94.9705 265.1423 15.30199649102624
STARLINK-31773          
1 59429U 24065J   26027.61203087 -.00002914  00000+0 -86346-4 0  9998
2 59429  53.1596 114.3643 0001097 123.5717 236.5388 15.30179932102610
STARLINK-31772          
1 59430U 24065K   26027.61466125  .00001229  00000+0  53625-4 0  9994
2 59430  53.1591 112.2519 0000977  80.9649 279.1462 15.30199937102648
STARLINK-31613          
1 59431U 24065L   26027.62734486 -.00003164  00000+0 -94846-4 0  9996
2 59431  53.1603 112.3318 0001239  84.9098 275.2044 15.30166214102640
STARLINK-31780          
1 59432U 24065M   26027.63471328  .00001393  00000+0  59139-4 0  9997
2 59432  53.1584 112.3741 0001020  81.8098 278.3019 15.30196037102645
STARLINK-31740          
1 59433U 24065N   26027.67523273  .00000017  00000+0  12691-4 0  9993
2 59433  53.1590 114.0542 0000617  96.4360 263.6711 15.30191702102624
STARLINK-31580          
1 59434U 24065P   26027.61836796 -.00001373  00000+0 -34268-4 0  9997
2 59434  53.1593 114.4087 0001008  97.6419 262.4696 15.30185133102618
STARLINK-31696          
1 59435U 24065Q   26027.62416252  .00000048  00000+0  13764-4 0  9994
2 59435  53.1595 112.3128 0001190  48.3768 311.7335 15.30191556102643
STARLINK-31700          
1 59436U 24065R   26027.61782721  .00001173  00000+0  51711-4 0  9995
2 59436  53.1581 112.2698 0000528 104.0015 256.1044 15.30195098102643
STARLINK-31706          
1 59437U 24065S   26027.67627329 -.00005084  00000+0 -15961-3 0  9997
2 59437  53.1559 114.0669 0000579 102.0920 258.0146 15.30206467102621
STARLINK-31711          
1 59438U 24065T   26027.62099676  .00004798  00000+0  17402-3 0  9992
2 59438  53.1603 112.2901 0001113  58.0404 302.0705 15.30196946102646
STARLINK-31708          
1 59439U 24065U   26027.48086578  .00001567  00000+0  65032-4 0  9998
2 59439  53.1588 112.8352 0000841 112.0056 248.1034 15.30195601102626
STARLINK-31693          
1 59441U 24065W   26027.63683024 -.00001144  00000+0 -26517-4 0  9995
2 59441  53.1593 112.3857 0001095  77.5056 282.6067 15.30186665102648
STARLINK-31622          
1 59456U 24068B   26027.71448704  .00001960  00000+0  80732-4 0  9990
2 59456  43.0017 266.1387 0001220 272.8839  87.1873 15.27576191102251
STARLINK-31319          
1 59457U 24068C   26027.69057239 -.00000108  00000+0  55857-5 0  9992
2 59457  42.9992 262.4959 0000796 244.1986 115.8783 15.27562449102292
