[{"OBJECT_NAME":"STARLINK-11089 [DTC]","OBJECT_ID":"2024-065F","EPOCH":"2026-01-27T18:29:31.098912","MEAN_MOTION":15.69711385,"ECCENTRICITY":0.00011252,"INCLINATION":53.1579,"RA_OF_ASC_NODE":295.8091,"ARG_OF_PERICENTER":82.1445,"MEAN_ANOMALY":277.9701,"EPHEMERIS_TYPE":0,"CLASSIFICATION_TYPE":"U","NORAD_CAT_ID":59426,"ELEMENT_SET_NO":999,"REV_AT_EPOCH":10509,"BSTAR":1.7246802e-5,"MEAN_MOTION_DOT":1.501e-5,"MEAN_MOTION_DDOT":0},{"OBJECT_NAME":"STARLINK-31757","OBJECT_ID":"2024-065G","EPOCH":"2026-01-27T11:59:48.432768","MEAN_MOTION":15.30199649,"ECCENTRICITY":0.00011094,"INCLINATION":53.1581,"RA_OF_ASC_NODE":112.967,"ARG_OF_PERICENTER":94.9705,"MEAN_ANOMALY":265.1423,"EPHEMERIS_TYPE":0,"CLASSIFICATION_TYPE":"U","NORAD_CAT_ID":59427,"ELEMENT_SET_NO":999,"REV_AT_EPOCH":10262,"BSTAR":0.00034741525,"MEAN_MOTION_DOT":9.944e-5,"MEAN_MOTION_DDOT":0},{"OBJECT_NAME":"STARLINK-31773","OBJECT_ID":"2024-065J","EPOCH":"2026-01-27T14:41:19.467168","MEAN_MOTION":15.30179932,"ECCENTRICITY":0.0001097,"INCLINATION":53.1596,"RA_OF_ASC_NODE":114.3643,"ARG_OF_PERICENTER":123.5717,"MEAN_ANOMALY":236.5388,"EPHEMERIS_TYPE":0,"CLASSIFICATION_TYPE":"U","NORAD_CAT_ID":59429,"ELEMENT_SET_NO":999,"REV_AT_EPOCH":10261,"BSTAR":-8.6346e-5,"MEAN_MOTION_DOT":-2.914e-5,"MEAN_MOTION_DDOT":0},{"OBJECT_NAME":"STARLINK-31772","OBJECT_ID":"2024-065K","EPOCH":"2026-01-27T14:45:06.732000","MEAN_MOTION":15.30199937,"ECCENTRICITY":9.77e-5,"INCLINATION":53.1591,"RA_OF_ASC_NODE":112.2519,"ARG_OF_PERICENTER":80.9649,"MEAN_ANOMALY":279.1462,"EPHEMERIS_TYPE":0,"CLASSIFICATION_TYPE":"U","NORAD_CAT_ID":59430,"ELEMENT_SET_NO":999,"REV_AT_EPOCH":10264,"BSTAR":5.3625e-5,"MEAN_MOTION_DOT":1.229e-5,"MEAN_MOTION_DDOT":0},{"OBJECT_NAME":"STARLINK-31613","OBJECT_ID":"2024-065L","EPOCH":"2026-01-27T15:03:22.595904","MEAN_MOTION":15.30166214,"ECCENTRICITY":0.0001239,"INCLINATION":53.1603,"RA_OF_ASC_NODE":112.3318,"ARG_OF_PERICENTER":84.9098,"MEAN_ANOMALY":275.2044,"EPHEMERIS_TYPE":0,"CLASSIFICATION_TYPE":"U","NORAD_CAT_ID":59431,"ELEMENT_SET_NO":999,"REV_AT_EPOCH":10264,"BSTAR":-9.4846e-5,"MEAN_MOTION_DOT":-3.164e-5,"MEAN_MOTION_DDOT":0},{"OBJECT_NAME":"STARLINK-31780","OBJECT_ID":"2024-065M","EPOCH":"2026-01-27T15:13:59.227392","MEAN_MOTION":15.30196037,"ECCENTRICITY":0.000102,"INCLINATION":53.1584,"RA_OF_ASC_NODE":112.3741,"ARG_OF_PERICENTER":81.8098,"MEAN_ANOMALY":278.3019,"EPHEMERIS_TYPE":0,"CLASSIFICATION_TYPE":"U","NORAD_CAT_ID":59432,"ELEMENT_SET_NO":999,"REV_AT_EPOCH":10264,"BSTAR":5.9139e-5,"MEAN_MOTION_DOT":1.393e-5,"MEAN_MOTION_DDOT":0},{"OBJECT_NAME":"STARLINK-31740","OBJECT_ID":"2024-065N","EPOCH":"2026-01-27T16:12:20.107872","MEAN_MOTION":15.30191702,"ECCENTRICITY":6.176e-5,"INCLINATION":53.159,"RA_OF_ASC_NODE":114.0542,"ARG_OF_PERICENTER":96.436,"MEAN_ANOMALY":263.6711,"EPHEMERIS_TYPE":0,"CLASSIFICATION_TYPE":"U","NORAD_CAT_ID":59433,"ELEMENT_SET_NO":999,"REV_AT_EPOCH":10262,"BSTAR":1.269078e-5,"MEAN_MOTION_DOT":1.7e-7,"MEAN_MOTION_DDOT":0},{"OBJECT_NAME":"STARLINK-31580","OBJECT_ID":"2024-065P","EPOCH":"2026-01-27T14:50:26.991744","MEAN_MOTION":15.30185133,"ECCENTRICITY":0.0001008,"INCLINATION":53.1593,"RA_OF_ASC_NODE":114.4087,"ARG_OF_PERICENTER":97.6419,"MEAN_ANOMALY":262.4696,"EPHEMERIS_TYPE":0,"CLASSIFICATION_TYPE":"U","NORAD_CAT_ID":59434,"ELEMENT_SET_NO":999,"REV_AT_EPOCH":10261,"BSTAR":-3.4268e-5,"MEAN_MOTION_DOT":-1.373e-5,"MEAN_MOTION_DDOT":0},{"OBJECT_NAME":"STARLINK-31696","OBJECT_ID":"2024-065Q","EPOCH":"2026-01-27T14:58:47.641728","MEAN_MOTION":15.30191556,"ECCENTRICITY":0.000119,"INCLINATION":53.1595,"RA_OF_ASC_NODE":112.3128,"ARG_OF_PERICENTER":48.3768,"MEAN_ANOMALY":311.7335,"EPHEMERIS_TYPE":0,"CLASSIFICATION_TYPE":"U","NORAD_CAT_ID":59435,"ELEMENT_SET_NO":999,"REV_AT_EPOCH":10264,"BSTAR":1.3764e-5,"MEAN_MOTION_DOT":4.8e-7,"MEAN_MOTION_DDOT":0},{"OBJECT_NAME":"STARLINK-31700","OBJECT_ID":"2024-065R","EPOCH":"2026-01-27T14:49:40.270944","MEAN_MOTION":15.30195098,"ECCENTRICITY":5.28e-5,"INCLINATION":53.1581,"RA_OF_ASC_NODE":112.2698,"ARG_OF_PERICENTER":104.0015,"MEAN_ANOMALY":256.1044,"EPHEMERIS_TYPE":0,"CLASSIFICATION_TYPE":"U","NORAD_CAT_ID":59436,"ELEMENT_SET_NO":999,"REV_AT_EPOCH":10264,"BSTAR":5.1711e-5,"MEAN_MOTION_DOT":1.173e-5,"MEAN_MOTION_DDOT":0},{"OBJECT_NAME":"STARLINK-31706","OBJECT_ID":"2024-065S","EPOCH":"2026-01-27T16:13:50.012256","MEAN_MOTION":15.30206467,"ECCENTRICITY":5.791e-5,"INCLINATION":53.1559,"RA_OF_ASC_NODE":114.0669,"ARG_OF_PERICENTER":102.092,"MEAN_ANOMALY":258.0146,"EPHEMERIS_TYPE":0,"CLASSIFICATION_TYPE":"U","NORAD_CAT_ID":59437,"ELEMENT_SET_NO":999,"REV_AT_EPOCH":10262,"BSTAR":-0.00015961288,"MEAN_MOTION_DOT":-5.084e-5,"MEAN_MOTION_DDOT":0},{"OBJECT_NAME":"STARLINK-31711","OBJECT_ID":"2024-065T","EPOCH":"2026-01-27T14:54:14.120064","MEAN_MOTION":15.30196946,"ECCENTRICITY":0.0001113,"INCLINATION":53.1603,"RA_OF_ASC_NODE":112.2901,"ARG_OF_PERICENTER":58.0404,"MEAN_ANOMALY":302.0705,"EPHEMERIS_TYPE":0,"CLASSIFICATION_TYPE":"U","NORAD_CAT_ID":59438,"ELEMENT_SET_NO":999,"REV_AT_EPOCH":10264,"BSTAR":0.00017402,"MEAN_MOTION_DOT":4.798e-5,"MEAN_MOTION_DDOT":0},{"OBJECT_NAME":"STARLINK-31708","OBJECT_ID":"2024-065U","EPOCH":"2026-01-27T11:32:26.803392","MEAN_MOTION":15.30195601,"ECCENTRICITY":8.411e-5,"INCLINATION":53.1588,"RA_OF_ASC_NODE":112.8352,"ARG_OF_PERICENTER":112.0056,"MEAN_ANOMALY":248.1034,"EPHEMERIS_TYPE":0,"CLASSIFICATION_TYPE":"U","NORAD_CAT_ID":59439,"ELEMENT_SET_NO":999,"REV_AT_EPOCH":10262,"BSTAR":6.5031988e-5,"MEAN_MOTION_DOT":1.567e-5,"MEAN_MOTION_DDOT":0},{"OBJECT_NAME":"STARLINK-31693","OBJECT_ID":"2024-065W","EPOCH":"2026-01-27T15:17:02.132736","MEAN_MOTION":15.30186665,"ECCENTRICITY":0.0001095,"INCLINATION":53.1593,"RA_OF_ASC_NODE":112.3857,"ARG_OF_PERICENTER":77.5056,"MEAN_ANOMALY":282.6067,"EPHEMERIS_TYPE":0,"CLASSIFICATION_TYPE":"U","NORAD_CAT_ID":59441,"ELEMENT_SET_NO":999,"REV_AT_EPOCH":10264,"BSTAR":-2.6517e-5,"MEAN_MOTION_DOT":-1.144e-5,"MEAN_MOTION_DDOT":0},{"OBJECT_NAME":"STARLINK-31622","OBJECT_ID":"2024-068B","EPOCH":"2026-01-27T17:08:51.680256","MEAN_MOTION":15.27576191,"ECCENTRICITY":0.00012207,"INCLINATION":43.0017,"RA_OF_ASC_NODE":266.1387,"ARG_OF_PERICENTER":272.8839,"MEAN_ANOMALY":87.1873,"EPHEMERIS_TYPE":0,"CLASSIFICATION_TYPE":"U","NORAD_CAT_ID":59456,"ELEMENT_SET_NO":999,"REV_AT_EPOCH":10225,"BSTAR":8.0731946e-5,"MEAN_MOTION_DOT":1.96e-5,"MEAN_MOTION_DDOT":0},{"OBJECT_NAME":"STARLINK-31319","OBJECT_ID":"2024-068C","EPOCH":"2026-01-27T16:34:25.454496","MEAN_MOTION":15.27562449,"ECCENTRICITY":7.968e-5,"INCLINATION":42.9992,"RA_OF_ASC_NODE":262.4959,"ARG_OF_PERICENTER":244.1986,"MEAN_ANOMALY":115.8783,"EPHEMERIS_TYPE":0,"CLASSIFICATION_TYPE":"U","NORAD_CAT_ID":59457,"ELEMENT_SET_NO":999,"REV_AT_EPOCH":10229,"BSTAR":5.585707e-6,"MEAN_MOTION_DOT":-1.08e-6,"MEAN_MOTION_DDOT":0}]
